{"features":[{"bbox":[173.404255,-35.016053,173.458157,-34.990743],"geometry":{"coordinates":[[[[173.409405,-34.990743],[173.458157,-35.012116],[173.435497,-35.016053],[173.404255,-35.014647],[173.409405,-34.990743]]]],"type":"MultiPolygon"},"id":1,"properties":{"id":"default-project-work-areas.18572","layer":"Weedmanager - Project 445 - default-project-work-areas","path":"{\"type\":\"FeatureCollection\",\"features\":[{\"type\":\"Feature\",\"id\":\"default-project-work-areas.18572\",\"geometry\":{\"type\":\"MultiPolygon\",\"coordinates\":[[[[173.409405,-34.990743],[173.458157,-35.012116],[173.435497,-35.016053],[173.404255,-35.014647],[173.409405,-34.990743]]]]},\"geometry_name\":\"loc\",\"properties\":{\"project\":\"test\",\"project_id\":445,\"work_area\":\"test1\",\"retired\":0,\"species\":null},\"bbox\":[173.404255,-35.016053,173.458157,-34.990743]}],\"totalFeatures\":1,\"numberMatched\":1,\"numberReturned\":1,\"timeStamp\":\"2026-09-10T23:49:48.135Z\",\"crs\":{\"type\":\"name\",\"properties\":{\"name\":\"urn:ogc:def:crs:EPSG::4326\"}},\"bbox\":[173.404255,-35.016053,173.458157,-34.990743]}","project":"test","project_id":445,"retired":0,"species":null,"work_area":"test1"},"type":"Feature"},{"bbox":[173.410406,-35.076516,173.454693,-35.001603],"geometry":{"coordinates":[[[[173.437214,-35.017626],[173.439102,-35.021984],[173.440475,-35.025358],[173.440303,-35.02845],[173.440303,-35.031261],[173.43893,-35.032666999999996],[173.441505,-35.036603],[173.44817,-35.050943],[173.454693,-35.056424],[173.453492,-35.068227],[173.449887,-35.076516],[173.439416,-35.074689],[173.431176,-35.070053],[173.418473,-35.057688],[173.410406,-35.045322],[173.41401,-35.034359],[173.415899,-35.02719],[173.418817,-35.018193],[173.416242,-35.01496],[173.41298,-35.005399],[173.419675,-35.001603],[173.4274,-35.003431],[173.434781,-35.010883],[173.437214,-35.017626]]]],"type":"MultiPolygon"},"id":2,"properties":{"id":"default-project-work-areas.19329","layer":"Weedmanager - Project 441 - default-project-work-areas","path":"{\"type\":\"FeatureCollection\",\"features\":[{\"type\":\"Feature\",\"id\":\"default-project-work-areas.19329\",\"geometry\":{\"type\":\"MultiPolygon\",\"coordinates\":[[[[173.437214,-35.017626],[173.439102,-35.021984],[173.440475,-35.025358],[173.440303,-35.02845],[173.440303,-35.031261],[173.43893,-35.032667],[173.441505,-35.036603],[173.44817,-35.050943],[173.454693,-35.056424],[173.453492,-35.068227],[173.449887,-35.076516],[173.439416,-35.074689],[173.431176,-35.070053],[173.418473,-35.057688],[173.410406,-35.045322],[173.41401,-35.034359],[173.415899,-35.02719],[173.418817,-35.018193],[173.416242,-35.01496],[173.41298,-35.005399],[173.419675,-35.001603],[173.4274,-35.003431],[173.434781,-35.010883],[173.437214,-35.017626]]]]},\"geometry_name\":\"loc\",\"properties\":{\"project\":\"GESC900 Test project\",\"project_id\":441,\"work_area\":\"Hiki\",\"retired\":0,\"species\":null},\"bbox\":[173.410406,-35.076516,173.454693,-35.001603]},{\"type\":\"Feature\",\"id\":\"default-project-work-areas.19330\",\"geometry\":{\"type\":\"MultiPolygon\",\"coordinates\":[[[[173.462831,-35.027717],[173.464032,-35.027963],[173.46502,-35.028964],[173.465792,-35.030212],[173.465599,-35.031442],[173.465599,-35.032566],[173.464826,-35.032848],[173.46459,-35.03341],[173.464805,-35.034323],[173.466071,-35.035009],[173.467187,-35.035975],[173.467509,-35.037011],[173.46753,-35.037714],[173.469676,-35.038522],[173.471306,-35.038435],[173.473066,-35.039366],[173.472959,-35.039629],[173.470813,-35.040596],[173.469418,-35.039893],[173.467466,-35.039752],[173.466243,-35.038259],[173.46502,-35.036607],[173.463968,-35.036098],[173.463174,-35.035588],[173.462767,-35.035553],[173.46208,-35.034675],[173.461522,-35.034376],[173.461779,-35.033093],[173.461706,-35.031905],[173.461329,-35.031705],[173.460406,-35.031846],[173.460943,-35.031213],[173.462831,-35.027717]]]]},\"geometry_name\":\"loc\",\"properties\":{\"project\":\"GESC900 Test project\",\"project_id\":441,\"work_area\":\"Marianna\",\"retired\":0,\"species\":null},\"bbox\":[173.460406,-35.040596,173.473066,-35.027717]}],\"totalFeatures\":2,\"numberMatched\":2,\"numberReturned\":2,\"timeStamp\":\"2026-09-10T23:50:08.071Z\",\"crs\":{\"type\":\"name\",\"properties\":{\"name\":\"urn:ogc:def:crs:EPSG::4326\"}},\"bbox\":[173.410406,-35.076516,173.473066,-35.001603]}","project":"GESC900 Test project","project_id":441,"retired":0,"species":null,"work_area":"Hiki"},"type":"Feature"},{"bbox":[173.460406,-35.040596,173.473066,-35.027717],"geometry":{"coordinates":[[[[173.462831,-35.027717],[173.464032,-35.027963],[173.46502,-35.028964],[173.465792,-35.030212],[173.465599,-35.031442],[173.465599,-35.032566],[173.464826,-35.032848],[173.46459,-35.03341],[173.464805,-35.034323],[173.466071,-35.035009],[173.467187,-35.035975],[173.467509,-35.037011],[173.46753,-35.037714],[173.469676,-35.038522],[173.471306,-35.038435],[173.473066,-35.039366],[173.472959,-35.039629],[173.470813,-35.040596],[173.469418,-35.039893],[173.467466,-35.039752],[173.466243,-35.038259],[173.46502,-35.036607],[173.463968,-35.036098],[173.463174,-35.035588],[173.462767,-35.035553],[173.46208,-35.034675],[173.461522,-35.034376],[173.461779,-35.033093],[173.461706,-35.031905],[173.461329,-35.031705],[173.460406,-35.031846],[173.460943,-35.031213],[173.462831,-35.027717]]]],"type":"MultiPolygon"},"id":3,"properties":{"id":"default-project-work-areas.19330","layer":"Weedmanager - Project 441 - default-project-work-areas","path":"{\"type\":\"FeatureCollection\",\"features\":[{\"type\":\"Feature\",\"id\":\"default-project-work-areas.19329\",\"geometry\":{\"type\":\"MultiPolygon\",\"coordinates\":[[[[173.437214,-35.017626],[173.439102,-35.021984],[173.440475,-35.025358],[173.440303,-35.02845],[173.440303,-35.031261],[173.43893,-35.032667],[173.441505,-35.036603],[173.44817,-35.050943],[173.454693,-35.056424],[173.453492,-35.068227],[173.449887,-35.076516],[173.439416,-35.074689],[173.431176,-35.070053],[173.418473,-35.057688],[173.410406,-35.045322],[173.41401,-35.034359],[173.415899,-35.02719],[173.418817,-35.018193],[173.416242,-35.01496],[173.41298,-35.005399],[173.419675,-35.001603],[173.4274,-35.003431],[173.434781,-35.010883],[173.437214,-35.017626]]]]},\"geometry_name\":\"loc\",\"properties\":{\"project\":\"GESC900 Test project\",\"project_id\":441,\"work_area\":\"Hiki\",\"retired\":0,\"species\":null},\"bbox\":[173.410406,-35.076516,173.454693,-35.001603]},{\"type\":\"Feature\",\"id\":\"default-project-work-areas.19330\",\"geometry\":{\"type\":\"MultiPolygon\",\"coordinates\":[[[[173.462831,-35.027717],[173.464032,-35.027963],[173.46502,-35.028964],[173.465792,-35.030212],[173.465599,-35.031442],[173.465599,-35.032566],[173.464826,-35.032848],[173.46459,-35.03341],[173.464805,-35.034323],[173.466071,-35.035009],[173.467187,-35.035975],[173.467509,-35.037011],[173.46753,-35.037714],[173.469676,-35.038522],[173.471306,-35.038435],[173.473066,-35.039366],[173.472959,-35.039629],[173.470813,-35.040596],[173.469418,-35.039893],[173.467466,-35.039752],[173.466243,-35.038259],[173.46502,-35.036607],[173.463968,-35.036098],[173.463174,-35.035588],[173.462767,-35.035553],[173.46208,-35.034675],[173.461522,-35.034376],[173.461779,-35.033093],[173.461706,-35.031905],[173.461329,-35.031705],[173.460406,-35.031846],[173.460943,-35.031213],[173.462831,-35.027717]]]]},\"geometry_name\":\"loc\",\"properties\":{\"project\":\"GESC900 Test project\",\"project_id\":441,\"work_area\":\"Marianna\",\"retired\":0,\"species\":null},\"bbox\":[173.460406,-35.040596,173.473066,-35.027717]}],\"totalFeatures\":2,\"numberMatched\":2,\"numberReturned\":2,\"timeStamp\":\"2026-09-10T23:50:08.071Z\",\"crs\":{\"type\":\"name\",\"properties\":{\"name\":\"urn:ogc:def:crs:EPSG::4326\"}},\"bbox\":[173.410406,-35.076516,173.473066,-35.001603]}","project":"GESC900 Test project","project_id":441,"retired":0,"species":null,"work_area":"Marianna"},"type":"Feature"}],"type":"FeatureCollection"}