{"features":[{"bbox":[173.501329,-35.006154,173.511286,-35.003482],"geometry":{"coordinates":[[[173.501329,-35.003482],[173.510771,-35.005451],[173.511286,-35.006154]]],"type":"MultiLineString"},"id":1,"properties":{"added":"2026-08-07","density":55,"height":5,"id":"default-project-weeds-linestrings.18575","images":null,"last_checked":null,"layer":"Weedmanager - Project 445 - default-project-weeds-linestrings","maturity":"Seedling","patch_width":5,"path":"{\"type\":\"FeatureCollection\",\"features\":[{\"type\":\"Feature\",\"id\":\"default-project-weeds-linestrings.18575\",\"geometry\":{\"type\":\"MultiLineString\",\"coordinates\":[[[173.501329,-35.003482],[173.510771,-35.005451],[173.511286,-35.006154]]]},\"geometry_name\":\"loc\",\"properties\":{\"project\":\"test\",\"project_id\":445,\"species\":\"Alder (Alnus glutinosa)\",\"patch_width\":5,\"density\":55,\"height\":5,\"maturity\":\"Seedling\",\"added\":\"2026-08-07\",\"last_checked\":null,\"images\":null},\"bbox\":[173.501329,-35.006154,173.511286,-35.003482]}],\"totalFeatures\":1,\"numberMatched\":1,\"numberReturned\":1,\"timeStamp\":\"2026-09-10T23:47:22.393Z\",\"crs\":{\"type\":\"name\",\"properties\":{\"name\":\"urn:ogc:def:crs:EPSG::4326\"}},\"bbox\":[173.501329,-35.006154,173.511286,-35.003482]}","project":"test","project_id":445,"species":"Alder (Alnus glutinosa)"},"type":"Feature"}],"type":"FeatureCollection"}